[c2024g5(leonard)]
absolute_magnitude             = 13
discoverer                     = G.J. Leonard
discovery                      = 2024-04-05
iau_designation                = C/2024 G5
name                           = C/2024 G5 (Leonard)
orbit_ArgOfPericenter          = 209.5966
orbit_AscendingNode            = 316.3864
orbit_Eccentricity             = 0.995075
orbit_Epoch                    = 2461037.5
orbit_Inclination              = 50.3881
orbit_PericenterDistance       = 2.953345
orbit_TimeAtPericenter         = 2460560.6183
orbit_good                     = 1000
ref                            = MPEC 2024-JC6
slope_parameter                = 4
type                           = comet

[c2024g6(atlas)]
absolute_magnitude             = 5.3
discovery                      = 2024-04-10
iau_designation                = C/2024 G6
name                           = C/2024 G6 (ATLAS)
orbit_ArgOfPericenter          = 23.4266
orbit_AscendingNode            = 250.9509
orbit_Eccentricity             = 1.001857
orbit_Epoch                    = 2461037.5
orbit_Inclination              = 120.4519
orbit_PericenterDistance       = 6.429999
orbit_TimeAtPericenter         = 2461092.1159
orbit_good                     = 1000
ref                            = MPEC 2024-JD4
slope_parameter                = 4
type                           = comet

[c2024g7(atlas)]
absolute_magnitude             = 7
discovery                      = 2024-04-03
iau_designation                = C/2024 G7
name                           = C/2024 G7 (ATLAS)
orbit_ArgOfPericenter          = 289.6518
orbit_AscendingNode            = 191.9705
orbit_Eccentricity             = 1.001744
orbit_Epoch                    = 2461037.5
orbit_Inclination              = 131.5103
orbit_PericenterDistance       = 6.027484
orbit_TimeAtPericenter         = 2460716.4915
orbit_good                     = 1000
ref                            = MPEC 2024-K41
slope_parameter                = 4
type                           = comet

[c2024j2(wierzchos)]
absolute_magnitude             = 11.2
discoverer                     = K.W. Wierzchos
discovery                      = 2024-05-11
iau_designation                = C/2024 J2
name                           = C/2024 J2 (Wierzchos)
orbit_ArgOfPericenter          = 143.1493
orbit_AscendingNode            = 189.0606
orbit_Eccentricity             = 0.987721
orbit_Epoch                    = 2461037.5
orbit_Inclination              = 79.2986
orbit_PericenterDistance       = 1.811141
orbit_TimeAtPericenter         = 2460754.2591
orbit_good                     = 1000
ref                            = MPEC 2024-LE0
slope_parameter                = 3.4
type                           = comet

[c2024j3(atlas)]
absolute_magnitude             = 4.8
discovery                      = 2024-05-06
iau_designation                = C/2024 J3
name                           = C/2024 J3 (ATLAS)
orbit_ArgOfPericenter          = 74.0887
orbit_AscendingNode            = 285.9614
orbit_Eccentricity             = 1.000414
orbit_Epoch                    = 2461037.5
orbit_Inclination              = 75.6414
orbit_PericenterDistance       = 3.865423
orbit_TimeAtPericenter         = 2461369.8892
orbit_good                     = 1000
ref                            = MPEC 2024-LE0
slope_parameter                = 4
type                           = comet

[c2024j4(lemmon)]
absolute_magnitude             = 8
discoverer                     = K.W. Wierzchos
discovery                      = 2024-05-11
iau_designation                = C/2024 J4
name                           = C/2024 J4 (Lemmon)
orbit_ArgOfPericenter          = 127.8558
orbit_AscendingNode            = 19.3115
orbit_Eccentricity             = 0.998996
orbit_Epoch                    = 2461037.5
orbit_Inclination              = 117.5234
orbit_PericenterDistance       = 5.695072
orbit_TimeAtPericenter         = 2460791.4498
orbit_good                     = 1000
ref                            = MPEC 2024-LE0
slope_parameter                = 4
type                           = comet

[c2024l1(panstarrs)]
absolute_magnitude             = 10
discovery                      = 2024-06-01
iau_designation                = C/2024 L1
name                           = C/2024 L1 (PANSTARRS)
orbit_ArgOfPericenter          = 171.7822
orbit_AscendingNode            = 45.1384
orbit_Eccentricity             = 0.533482
orbit_Epoch                    = 2461037.5
orbit_Inclination              = 99.1579
orbit_PericenterDistance       = 5.348009
orbit_TimeAtPericenter         = 2460788.5175
orbit_good                     = 1000
ref                            = MPEC 2024-LE0
slope_parameter                = 4
type                           = comet

[c2024l2(panstarrs)]
absolute_magnitude             = 7.5
discovery                      = 2024-06-13
iau_designation                = C/2024 L2
name                           = C/2024 L2 (PANSTARRS)
orbit_ArgOfPericenter          = 345.8692
orbit_AscendingNode            = 266.1803
orbit_Eccentricity             = 1.00479
orbit_Epoch                    = 2461037.5
orbit_Inclination              = 139.585
orbit_PericenterDistance       = 8.326155
orbit_TimeAtPericenter         = 2460843.612
orbit_good                     = 1000
ref                            = MPEC 2024-P23
slope_parameter                = 3.2
type                           = comet

[c2024l3(panstarrs)]
absolute_magnitude             = 9.5
discovery                      = 2024-06-07
iau_designation                = C/2024 L3
name                           = C/2024 L3 (PANSTARRS)
orbit_ArgOfPericenter          = 59.0519
orbit_AscendingNode            = 295.0037
orbit_Eccentricity             = 1.003871
orbit_Epoch                    = 2461037.5
orbit_Inclination              = 111.5922
orbit_PericenterDistance       = 6.857722
orbit_TimeAtPericenter         = 2460272.2012
orbit_good                     = 1000
ref                            = MPEC 2024-RQ6
slope_parameter                = 4
type                           = comet

[c2024l5(atlas)]
absolute_magnitude             = 8.2
discovery                      = 2024-06-14
iau_designation                = C/2024 L5
name                           = C/2024 L5 (ATLAS)
orbit_ArgOfPericenter          = 290.5274
orbit_AscendingNode            = 139.1776
orbit_Eccentricity             = 1.037041
orbit_Epoch                    = 2461037.5
orbit_Inclination              = 166.5731
orbit_PericenterDistance       = 3.432741
orbit_TimeAtPericenter         = 2460744.9352
orbit_good                     = 1000
ref                            = MPEC 2024-RQ6
slope_parameter                = 4
type                           = comet

